satname,norad_id,inclination_deg,eccentricity,mean_motion_rev_per_day,perigee_km,apogee_km,l1,l2
STARLINK-1265,45406,53.1602,0.0001918,15.30785556,472.15312439700756,474.78139979194657,1 45406U 20019AY  26085.91668981  .00058271  00000+0  19289-2 0  9993,2 45406  53.1602  49.3120 0001918 101.3960 116.1055 15.30785556  5904
STARLINK-1278,45408,53.0454,0.0003439,15.58555435,389.50887708573737,394.16526525188783,1 45408U 20019BA  26085.91457984  .00070637  00000+0  90486-3 0  9993,2 45408  53.0454  46.8009 0003439  96.1289 264.0114 15.58555435332647
STARLINK-1296,45412,53.1604,0.0002278,15.31299027,470.3750891640011,473.4959822112596,1 45412U 20019BE  26085.27966125  .00050674  00000+0  16541-2 0  9997,2 45412  53.1604  52.1371 0002278 106.9484 253.1767 15.31299027332511
STARLINK-1298,45413,53.0255,0.0003906,16.22277497,210.80083457610817,215.95012412497636,1 45413U 20019BF  26086.03503356  .01774746  11874-4  74617-3 0  9995,2 45413  53.0255 323.3939 0003906 252.2682 107.7930 16.22277497333908
STARLINK-1309,45414,53.0676,0.0007114,15.57894935,388.932923786223,398.56796524227684,1 45414U 20019BG  26085.83715850  .00103235  00000+0  13461-2 0  9998,2 45414  53.0676  40.5626 0007114  93.6639 266.5186 15.57894935332704
STARLINK-1316,45415,53.1601,0.0001398,15.31373076,470.757102759163,472.672321297845,1 45415U 20019BH  26085.91227416  .00054971  00000+0  17883-2 0  9998,2 45415  53.1601  49.2441 0001398 128.6654 231.4472 15.31373076332630
STARLINK-1286,45417,53.05,0.0003814,15.52115261,407.9619890239928,413.1404003789112,1 45417U 20019BK  26085.61229568  .00036246  00000+0  59447-3 0  9995,2 45417  53.0500  49.3321 0003814  99.3974 260.7466 15.52115261332856
STARLINK-1308,45419,53.0537,0.0005559,15.5344785,402.8966209605187,410.4399674866363,1 45419U 20019BM  26085.23092554  .00094589  00000+0  14558-2 0  9995,2 45419  53.0537  72.4873 0005559  75.6518 284.5109 15.53447850332240
STARLINK-1329,45531,53.0468,0.0001062,15.64878573,372.87097109830574,374.3050374892182,1 45531U 20025A   26085.91668981 -.00061700  00000+0 -61882-3 0  9999,2 45531  53.0468 357.5083 0001062 110.3779  86.6037 15.64878573  5924
STARLINK-1338,45532,53.0508,0.0004726,15.57390669,392.0110560410776,398.41322564900383,1 45532U 20025B   26085.91311015  .00082996  00000+0  11075-2 0  9999,2 45532  53.0508   1.2989 0004726  79.4136 280.7407 15.57390669328080
STARLINK-1350,45535,53.0741,0.0002299,15.36532924,454.79982174247743,457.9423285554303,1 45535U 20025E   26085.89952369  .00004935  00000+0  14698-3 0  9994,2 45535  53.0741 312.2936 0002299 103.4508 256.6750 15.36532924328805
STARLINK-1362,45538,53.1621,0.0001628,15.29723653,475.52176743760356,477.7536820879868,1 45538U 20025H   26085.83367398 -.00179711  00000+0 -62946-2 0  9998,2 45538  53.1621  21.3650 0001628  73.6782 286.4398 15.29723653327805
STARLINK-1368,45540,53.1603,0.0001218,15.30189052,474.4130161052626,476.0825006324012,1 45540U 20025K   26085.51672468  .00003653  00000+0  13543-3 0  9992,2 45540  53.1603  23.1671 0001218  94.1719 265.9421 15.30189052327747
STARLINK-1371,45542,53.0513,0.0001798,15.49680877,416.4369890718781,418.88075726786974,1 45542U 20025M   26085.20653451  .00061533  00000+0  10912-2 0  9998,2 45542  53.0513  10.3514 0001798  87.7842 272.3372 15.49680877327894
STARLINK-1372,45543,53.1623,0.0001404,15.30191188,474.27916626458045,476.2035949138508,1 45543U 20025N   26085.23224427  .00000825  00000+0  40007-4 0  9996,2 45543  53.1623  24.1840 0001404  86.5358 273.5803 15.30191188326800
STARLINK-1373,45544,53.0502,0.0004743,15.53619436,402.95093379204263,409.38652620752146,1 45544U 20025P   26085.75900744  .00086067  00000+0  13187-2 0  9996,2 45544  53.0502   6.7845 0004743  79.9167 280.2378 15.53619436327999
STARLINK-1327,45555,53.0469,0.0006813,15.57251268,391.0013981435932,400.23131446689604,1 45555U 20025AA  26085.86978450  .00145174  00000+0  19265-2 0  9997,2 45555  53.0469 343.4754 0006813 122.3559 237.8113 15.57251268328323
STARLINK-1356,45564,53.0533,0.0005853,15.47220347,420.88002994302315,428.8436203677493,1 45564U 20025AK  26085.47282590  .00031337  00000+0  61176-3 0  9991,2 45564  53.0533 353.7893 0005853 100.3086 259.8580 15.47220347328142
STARLINK-1357,45565,53.0496,0.0004329,15.59028362,387.5377707704656,393.3980288927396,1 45565U 20025AL  26085.91304569  .00115808  00000+0  14449-2 0  9998,2 45565  53.0496 314.4485 0004329 185.5041 174.5924 15.59028362328742
STARLINK-1361,45567,53.0502,0.000738,15.5047121,410.33570364015304,420.36288941382645,1 45567U 20025AN  26085.91482133  .00050155  00000+0  86693-3 0  9998,2 45567  53.0502 351.3580 0007380  91.6745 268.5108 15.50471210328222
STARLINK-1363,45568,53.0403,0.0005912,15.80999413,323.6487240786819,331.57760307209355,1 45568U 20025AP  26085.91668981  .00120855  00000+0  60314-3 0  9993,2 45568  53.0403 311.4083 0005912 123.8986 245.5698 15.80999413  5989
STARLINK-1366,45569,53.0421,0.0006278,15.79733183,326.98388062641425,335.4081191410678,1 45569U 20025AQ  26085.87845838  .00122253  00000+0  64628-3 0  9993,2 45569  53.0421 312.5113 0006278 122.1203 238.0427 15.79733183328754
STARLINK-1376,45570,53.1619,0.0001609,15.31472073,470.3174243737767,472.5216116612746,1 45570U 20025AR  26085.89151847  .00053622  00000+0  17396-2 0  9999,2 45570  53.1619 357.8432 0001609 143.1569 216.9543 15.31472073328135
STARLINK-1320,45572,53.0463,0.000542,15.71200441,351.81543837199115,359.1146629949335,1 45572U 20025AT  26084.91230217  .00073061  00000+0  56592-3 0  9993,2 45572  53.0463 265.5243 0005420  99.4271 260.7359 15.71200441329355
STARLINK-1321,45573,53.0488,0.0004364,15.51173273,410.33553202592157,416.26309764150847,1 45573U 20025AU  26085.91115554  .00101322  00000+0  16905-2 0  9996,2 45573  53.0488 335.8650 0004364 126.1246 234.0166 15.51173273328137
STARLINK-1331,45578,53.0531,0.0005318,15.51076258,409.97066427605387,417.1943371370062,1 45578U 20025AZ  26085.91959556  .00091335  00000+0  15316-2 0  9996,2 45578  53.0531 342.5181 0005318 147.2793 212.8546 15.51076258328351
STARLINK-1333,45580,53.1623,0.0001394,15.30193726,474.27844262656254,476.1891624063037,1 45580U 20025BB  26085.47926483  .00001311  00000+0  56406-4 0  9995,2 45580  53.1623 359.8238 0001394  90.6653 269.4507 15.30193726328078
STARLINK-1335,45581,53.1595,0.0001311,15.29367088,476.80432248433226,478.601923764616,1 45581U 20025BC  26085.75951193  .00000956  00000+0  45431-4 0  9993,2 45581  53.1595 355.8603 0001311  88.1296 271.9854 15.29367088328146
STARLINK-1337,45582,53.0528,0.0005069,15.61242464,380.639285252827,387.4948077151521,1 45582U 20025BD  26085.85999314  .00133232  00000+0  15232-2 0  9990,2 45582  53.0528 338.1902 0005069 153.8376 206.2894 15.61242464328399
STARLINK-1347,45586,53.0442,0.0004268,15.57389359,392.3250720841388,398.1068061529704,1 45586U 20025BH  26085.89695244  .00114923  00000+0  15251-2 0  9990,2 45586  53.0442 306.1767 0004268 132.7031 227.4340 15.57389359328847
STARLINK-1364,45589,53.0506,0.0007542,15.52429933,404.51446507659057,414.75313855404966,1 45589U 20025BL  26085.89203476  .00097453  00000+0  15544-2 0  9998,2 45589  53.0506 340.5262 0007542 124.2131 235.9594 15.52429933328368
STARLINK-1365,45590,53.0531,0.0004409,15.47660884,420.57192221231526,426.56966814610405,1 45590U 20025BM  26085.08226676  .00059877  00000+0  11397-2 0  9998,2 45590  53.0531  15.2859 0004409 104.2619 255.8878 15.47660884327826
STARLINK-1443,45660,53.1356,0.0003484,15.26579806,483.65419053481764,488.4371530205126,1 45660U 20035D   26085.87580306  .00048613  00000+0  18344-2 0  9992,2 45660  53.1356 345.5627 0003484 123.9975 236.1355 15.26579806321384
STARLINK-1446,45663,53.0237,0.0001217,15.43588646,434.69899293031267,436.35743904388437,1 45663U 20035G   26085.90803778  .00020087  00000+0  44790-3 0  9990,2 45663  53.0237 277.5415 0001217   1.4923 358.6085 15.43588646322335
STARLINK-1448,45665,53.0502,0.0007406,15.55702765,395.09057717579344,405.13051744286804,1 45665U 20035J   26085.88558742  .00112038  00000+0  15825-2 0  9991,2 45665  53.0502 329.7088 0007406 146.6066 213.5412 15.55702765321597
STARLINK-1451,45668,53.0552,0.0002174,15.10912638,531.9128354873137,534.917978473869,1 45668U 20035M   26085.88370384  .00025824  00000+0  15443-2 0  9990,2 45668  53.0552 348.3787 0002174  87.7855 272.3385 15.10912638321344
STARLINK-1452,45669,53.0295,0.0005555,15.47670515,419.7642445762622,427.3209105869555,1 45669U 20035N   26085.87138753  .00088905  00000+0  16810-2 0  9990,2 45669  53.0295 299.6931 0005555 121.9827 238.1720 15.47670515322028
STARLINK-1453,45670,53.0459,0.0004087,15.55992422,396.4993885583144,402.0392404798022,1 45670U 20035P   26085.87385853  .00110757  00000+0  15492-2 0  9993,2 45670  53.0459 290.3214 0004087 118.4615 241.6808 15.55992422322040
STARLINK-1454,45671,53.0501,0.0007405,15.54355429,399.00477276504444,409.04915759747837,1 45671U 20035Q   26085.87149104  .00109695  00000+0  16285-2 0  9991,2 45671  53.0501 330.0674 0007405 130.0391 230.1269 15.54355429321580
STARLINK-1456,45673,53.0489,0.0002476,15.52631548,407.3656709648949,410.72668407440324,1 45673U 20035S   26085.88482020  .00099862  00000+0  15821-2 0  9990,2 45673  53.0489 323.6548 0002476 182.7006 177.3990 15.52631548321697
STARLINK-1457,45674,53.0447,0.0005669,15.83643712,316.3491822566102,323.94369601990456,1 45674U 20035T   26085.91668981  .00175985  00000+0  77005-3 0  9991,2 45674  53.0447 295.8493 0005669 142.7531 173.7911 15.83643712  5936
STARLINK-1458,45675,53.0531,0.0006481,15.45065821,426.7715556484354,435.5977984061983,1 45675U 20035U   26085.89535144  .00082606  00000+0  17100-2 0  9999,2 45675  53.0531 333.6758 0006481 139.8041 220.3445 15.45065821321515
STARLINK-1460,45676,53.1621,0.0001513,15.30206391,474.15907783077546,476.2328963926748,1 45676U 20035V   26085.90744850 -.00000770  00000+0 -13870-4 0  9994,2 45676  53.1621 344.9730 0001513  96.1517 263.9656 15.30206391321358
